start=new Date('2023-02-23T00:00:00.000Z').valueOf();
sats=[{"APOAPSIS":"540.573","COUNTRY_CODE":"US","OBJECT_TYPE":"PAYLOAD","FILE":"3825529","BSTAR":"0.00005132600000","RA_OF_ASC_NODE":"280.4979","ECCENTRICITY":"0.00011660","ELEMENT_SET_NO":"999","RCS_SIZE":"LARGE","SITE":"AFETR","MEAN_MOTION_DOT":"0.00000529","PERIAPSIS":"538.960","MEAN_ANOMALY":"264.2802","TLE_LINE2":"2 54096  53.2164 280.4979 0001166  95.8323 264.2802 15.08833199 19292","EPOCH":"2023-02-22T21:18:02.449440","TIME_SYSTEM":"UTC","INCLINATION":"53.2164","TLE_LINE1":"1 54096U 22136AX  23053.88752835  .00000529  00000-0  51326-4 0  9994","ARG_OF_PERICENTER":"95.8323","DECAY_DATE":null,"MEAN_MOTION_DDOT":"0.0000000000000","MEAN_ELEMENT_THEORY":"SGP4","OBJECT_ID":"2022-136AX","EPHEMERIS_TYPE":"0","NORAD_CAT_ID":"54096","REV_AT_EPOCH":"1929","REF_FRAME":"TEME","LAUNCH_DATE":"2022-10-20","CLASSIFICATION_TYPE":"U","GP_ID":"226477370","SEMIMAJOR_AXIS":"6917.901","MEAN_MOTION":"15.08833199","CENTER_NAME":"EARTH","PERIOD":"95.438","OBJECT_NAME":"STARLINK-5188"},{"MEAN_ANOMALY":"70.7347","PERIAPSIS":"538.683","SITE":"AFETR","RCS_SIZE":"LARGE","MEAN_MOTION_DOT":"-0.00007379","ELEMENT_SET_NO":"999","TIME_SYSTEM":"UTC","EPOCH":"2023-02-22T22:00:00.999936","TLE_LINE2":"2 54097  53.2082 255.4274 0001589  80.1219  70.7347 15.08827986  1306","FILE":"3825529","APOAPSIS":"540.881","COUNTRY_CODE":"US","OBJECT_TYPE":"PAYLOAD","ECCENTRICITY":"0.00015890","BSTAR":"-0.00044613000000","RA_OF_ASC_NODE":"255.4274","LAUNCH_DATE":"2022-10-20","REF_FRAME":"TEME","REV_AT_EPOCH":"130","NORAD_CAT_ID":"54097","EPHEMERIS_TYPE":"0","CENTER_NAME":"EARTH","PERIOD":"95.438","OBJECT_NAME":"STARLINK-5197","MEAN_MOTION":"15.08827986","CLASSIFICATION_TYPE":"U","GP_ID":"226477595","SEMIMAJOR_AXIS":"6917.917","TLE_LINE1":"1 54097U 22136AY  23053.91667824 -.00007379  00000-0 -44613-3 0  9994","ARG_OF_PERICENTER":"80.1219","INCLINATION":"53.2082","MEAN_ELEMENT_THEORY":"SGP4","OBJECT_ID":"2022-136AY","MEAN_MOTION_DDOT":"0.0000000000000","DECAY_DATE":null},{"EPOCH":"2023-02-22T20:56:48.826176","TLE_LINE2":"2 54098  53.2167 280.4034 0001016  93.5896 266.5212 15.08836700 19294","TIME_SYSTEM":"UTC","RCS_SIZE":"LARGE","SITE":"AFETR","MEAN_MOTION_DOT":"0.00000004","ELEMENT_SET_NO":"999","MEAN_ANOMALY":"266.5212","PERIAPSIS":"539.053","BSTAR":"0.00001832600000","RA_OF_ASC_NODE":"280.4034","ECCENTRICITY":"0.00010160","APOAPSIS":"540.458","OBJECT_TYPE":"PAYLOAD","COUNTRY_CODE":"US","FILE":"3825529","MEAN_MOTION":"15.08836700","CLASSIFICATION_TYPE":"U","GP_ID":"226476369","SEMIMAJOR_AXIS":"6917.890","CENTER_NAME":"EARTH","PERIOD":"95.438","OBJECT_NAME":"STARLINK-5217","REV_AT_EPOCH":"1929","NORAD_CAT_ID":"54098","EPHEMERIS_TYPE":"0","LAUNCH_DATE":"2022-10-20","REF_FRAME":"TEME","DECAY_DATE":null,"MEAN_ELEMENT_THEORY":"SGP4","OBJECT_ID":"2022-136AZ","MEAN_MOTION_DDOT":"0.0000000000000","INCLINATION":"53.2167","TLE_LINE1":"1 54098U 22136AZ  23053.87278734  .00000004  00000-0  18326-4 0  9997","ARG_OF_PERICENTER":"93.5896"},{"OBJECT_NAME":"STARLINK-5198","PERIOD":"95.438","CENTER_NAME":"EARTH","SEMIMAJOR_AXIS":"6917.903","GP_ID":"226476619","CLASSIFICATION_TYPE":"U","MEAN_MOTION":"15.08832636","REF_FRAME":"TEME","LAUNCH_DATE":"2022-10-20","EPHEMERIS_TYPE":"0","REV_AT_EPOCH":"1927","NORAD_CAT_ID":"54099","MEAN_MOTION_DDOT":"0.0000000000000","OBJECT_ID":"2022-136BA","MEAN_ELEMENT_THEORY":"SGP4","DECAY_DATE":null,"TLE_LINE1":"1 54099U 22136BA  23053.73294192 -.00001272  00000-0 -61840-4 0  9998","ARG_OF_PERICENTER":"104.4962","INCLINATION":"53.2163","TIME_SYSTEM":"UTC","TLE_LINE2":"2 54099  53.2163 280.9473 0001085 104.4962 255.6151 15.08832636 19278","EPOCH":"2023-02-22T17:35:26.181888","PERIAPSIS":"539.017","MEAN_ANOMALY":"255.6151","ELEMENT_SET_NO":"999","SITE":"AFETR","MEAN_MOTION_DOT":"-0.00001272","RCS_SIZE":"LARGE","ECCENTRICITY":"0.00010850","RA_OF_ASC_NODE":"280.9473","BSTAR":"-0.00006184000000","FILE":"3825529","OBJECT_TYPE":"PAYLOAD","COUNTRY_CODE":"US","APOAPSIS":"540.518"},{"INCLINATION":"53.2152","ARG_OF_PERICENTER":"70.9690","TLE_LINE1":"1 54100U 22136BB  23053.88015672 -.00001550  00000-0 -79378-4 0  9995","DECAY_DATE":null,"MEAN_ELEMENT_THEORY":"SGP4","OBJECT_ID":"2022-136BB","MEAN_MOTION_DDOT":"0.0000000000000","REV_AT_EPOCH":"1929","NORAD_CAT_ID":"54100","EPHEMERIS_TYPE":"0","REF_FRAME":"TEME","LAUNCH_DATE":"2022-10-20","MEAN_MOTION":"15.08829793","GP_ID":"226476870","CLASSIFICATION_TYPE":"U","SEMIMAJOR_AXIS":"6917.912","CENTER_NAME":"EARTH","PERIOD":"95.438","OBJECT_NAME":"STARLINK-5185","APOAPSIS":"540.397","OBJECT_TYPE":"PAYLOAD","COUNTRY_CODE":"US","FILE":"3825529","BSTAR":"-0.00007937800000","RA_OF_ASC_NODE":"280.4526","ECCENTRICITY":"0.00008970","RCS_SIZE":"LARGE","SITE":"AFETR","MEAN_MOTION_DOT":"-0.00001550","ELEMENT_SET_NO":"999","MEAN_ANOMALY":"289.1399","PERIAPSIS":"539.156","EPOCH":"2023-02-22T21:07:25.540608","TLE_LINE2":"2 54100  53.2152 280.4526 0000897  70.9690 289.1399 15.08829793 19296","TIME_SYSTEM":"UTC"},{"PERIOD":"95.438","OBJECT_NAME":"STARLINK-5204","CENTER_NAME":"EARTH","SEMIMAJOR_AXIS":"6917.907","CLASSIFICATION_TYPE":"U","GP_ID":"226477095","MEAN_MOTION":"15.08831143","REF_FRAME":"TEME","LAUNCH_DATE":"2022-10-20","EPHEMERIS_TYPE":"0","REV_AT_EPOCH":"1950","NORAD_CAT_ID":"54101","MEAN_MOTION_DDOT":"0.0000000000000","OBJECT_ID":"2022-136BC","MEAN_ELEMENT_THEORY":"SGP4","DECAY_DATE":null,"TLE_LINE1":"1 54101U 22136BC  23053.88066225 -.00002287  00000-0 -12570-3 0  9994","ARG_OF_PERICENTER":"91.6723","INCLINATION":"53.2161","TIME_SYSTEM":"UTC","TLE_LINE2":"2 54101  53.2161 265.4869 0001139  91.6723 268.4399 15.08831143 19503","EPOCH":"2023-02-22T21:08:09.218400","PERIAPSIS":"538.985","MEAN_ANOMALY":"268.4399","ELEMENT_SET_NO":"999","RCS_SIZE":"LARGE","SITE":"AFETR","MEAN_MOTION_DOT":"-0.00002287","ECCENTRICITY":"0.00011390","RA_OF_ASC_NODE":"265.4869","BSTAR":"-0.00012570000000","FILE":"3825529","OBJECT_TYPE":"PAYLOAD","COUNTRY_CODE":"US","APOAPSIS":"540.560"},{"LAUNCH_DATE":"2022-10-20","REF_FRAME":"TEME","EPHEMERIS_TYPE":"0","NORAD_CAT_ID":"54102","REV_AT_EPOCH":"1963","CENTER_NAME":"EARTH","PERIOD":"95.437","OBJECT_NAME":"STARLINK-5179","CLASSIFICATION_TYPE":"U","GP_ID":"226441559","SEMIMAJOR_AXIS":"6917.856","MEAN_MOTION":"15.08847877","TLE_LINE1":"1 54102U 22136BD  23053.00797122  .00001197  00000-0  93251-4 0  9999","ARG_OF_PERICENTER":"98.1215","INCLINATION":"53.2173","MEAN_MOTION_DDOT":"0.0000000000000","MEAN_ELEMENT_THEORY":"SGP4","OBJECT_ID":"2022-136BD","DECAY_DATE":null,"PERIAPSIS":"538.896","MEAN_ANOMALY":"261.9913","ELEMENT_SET_NO":"999","SITE":"AFETR","RCS_SIZE":"LARGE","MEAN_MOTION_DOT":"0.00001197","TIME_SYSTEM":"UTC","TLE_LINE2":"2 54102  53.2173 284.2402 0001193  98.1215 261.9913 15.08847877 19632","EPOCH":"2023-02-22T00:11:28.713408","FILE":"3824866","APOAPSIS":"540.547","OBJECT_TYPE":"PAYLOAD","COUNTRY_CODE":"US","ECCENTRICITY":"0.00011930","BSTAR":"0.00009325100000","RA_OF_ASC_NODE":"284.2402"},{"REV_AT_EPOCH":"1956","NORAD_CAT_ID":"54103","EPHEMERIS_TYPE":"0","LAUNCH_DATE":"2022-10-20","REF_FRAME":"TEME","MEAN_MOTION":"15.08838261","SEMIMAJOR_AXIS":"6917.886","GP_ID":"226476119","CLASSIFICATION_TYPE":"U","PERIOD":"95.438","OBJECT_NAME":"STARLINK-5200","CENTER_NAME":"EARTH","INCLINATION":"53.2155","ARG_OF_PERICENTER":"82.9463","TLE_LINE1":"1 54103U 22136BE  23053.84619563 -.00001230  00000-0 -59244-4 0  9998","DECAY_DATE":null,"OBJECT_ID":"2022-136BE","MEAN_ELEMENT_THEORY":"SGP4","MEAN_MOTION_DDOT":"0.0000000000000","MEAN_MOTION_DOT":"-0.00001230","SITE":"AFETR","RCS_SIZE":"LARGE","ELEMENT_SET_NO":"999","MEAN_ANOMALY":"277.1649","PERIAPSIS":"539.022","EPOCH":"2023-02-22T20:18:31.302432","TLE_LINE2":"2 54103  53.2155 260.9840 0001053  82.9463 277.1649 15.08838261 19565","TIME_SYSTEM":"UTC","OBJECT_TYPE":"PAYLOAD","COUNTRY_CODE":"US","APOAPSIS":"540.479","FILE":"3825529","RA_OF_ASC_NODE":"260.9840","BSTAR":"-0.00005924400000","ECCENTRICITY":"0.00010530"},{"EPOCH":"2023-02-22T22:00:00.999936","TLE_LINE2":"2 54104  53.2103 248.4185 0001187  71.2268 352.1284 15.52699218  1302","TIME_SYSTEM":"UTC","SITE":"AFETR","MEAN_MOTION_DOT":"-0.01028370","RCS_SIZE":"LARGE","ELEMENT_SET_NO":"999","MEAN_ANOMALY":"352.1284","PERIAPSIS":"408.045","BSTAR":"-0.01798100000000","RA_OF_ASC_NODE":"248.4185","ECCENTRICITY":"0.00011870","APOAPSIS":"409.657","OBJECT_TYPE":"PAYLOAD","COUNTRY_CODE":"US","FILE":"3825529","MEAN_MOTION":"15.52699218","GP_ID":"226477371","CLASSIFICATION_TYPE":"U","SEMIMAJOR_AXIS":"6786.986","CENTER_NAME":"EARTH","PERIOD":"92.742","OBJECT_NAME":"STARLINK-5203","REV_AT_EPOCH":"130","NORAD_CAT_ID":"54104","EPHEMERIS_TYPE":"0","REF_FRAME":"TEME","LAUNCH_DATE":"2022-10-20","DECAY_DATE":null,"MEAN_ELEMENT_THEORY":"SGP4","OBJECT_ID":"2022-136BF","MEAN_MOTION_DDOT":"0.0000000000000","INCLINATION":"53.2103","TLE_LINE1":"1 54104U 22136BF  23053.91667824 -.01028370  00000-0 -17981-1 0  9994","ARG_OF_PERICENTER":"71.2268"},{"RA_OF_ASC_NODE":"324.0167","BSTAR":"0.00019488000000","ECCENTRICITY":"0.00012680","OBJECT_TYPE":"PAYLOAD","COUNTRY_CODE":"US","APOAPSIS":"540.550","FILE":"3824148","EPOCH":"2023-02-22T03:54:06.380640","TLE_LINE2":"2 54157  53.2168 324.0167 0001268  91.3409 268.7728 15.08863592 17910","TIME_SYSTEM":"UTC","MEAN_MOTION_DOT":"0.00002817","SITE":"AFWTR","RCS_SIZE":"LARGE","ELEMENT_SET_NO":"999","MEAN_ANOMALY":"268.7728","PERIAPSIS":"538.796","DECAY_DATE":null,"OBJECT_ID":"2022-141A","MEAN_ELEMENT_THEORY":"SGP4","MEAN_MOTION_DDOT":"0.0000000000000","INCLINATION":"53.2168","ARG_OF_PERICENTER":"91.3409","TLE_LINE1":"1 54157U 22141A   23053.16257385  .00002817  00000-0  19488-3 0  9993","MEAN_MOTION":"15.08863592","SEMIMAJOR_AXIS":"6917.808","CLASSIFICATION_TYPE":"U","GP_ID":"226425347","PERIOD":"95.436","OBJECT_NAME":"STARLINK-5290","CENTER_NAME":"EARTH","NORAD_CAT_ID":"54157","REV_AT_EPOCH":"1791","EPHEMERIS_TYPE":"0","LAUNCH_DATE":"2022-10-28","REF_FRAME":"TEME"}];
